IXPE                    
1 49954U 21121A   24058.00001157  .00006593  00000+0  49310-3 0  9993
2 49954   0.2301 137.5792 0009556  69.6154 140.9608 14.96656448  5803
